[{"OBJECT_NAME":"STARLINK-1572","OBJECT_ID":"2020-055AK","EPOCH":"2026-03-09T09:35:33.351648","MEAN_MOTION":15.29351391,"ECCENTRICITY":0.00012061,"INCLINATION":53.1561,"RA_OF_ASC_NODE":115.4328,"ARG_OF_PERICENTER":90.84,"MEAN_ANOMALY":269.2739,"EPHEMERIS_TYPE":0,"CLASSIFICATION_TYPE":"U","NORAD_CAT_ID":46060,"ELEMENT_SET_NO":999,"REV_AT_EPOCH":30899,"BSTAR":-0.000136887,"MEAN_MOTION_DOT":-4.303e-5,"MEAN_MOTION_DDOT":0},{"OBJECT_NAME":"TEVEL2-1","OBJECT_ID":"2025-052H","EPOCH":"2026-03-09T15:32:51.927072","MEAN_MOTION":15.30341923,"ECCENTRICITY":0.0004767,"INCLINATION":97.3991,"RA_OF_ASC_NODE":324.7682,"ARG_OF_PERICENTER":104.8919,"MEAN_ANOMALY":255.2849,"EPHEMERIS_TYPE":0,"CLASSIFICATION_TYPE":"U","NORAD_CAT_ID":63217,"ELEMENT_SET_NO":999,"REV_AT_EPOCH":5485,"BSTAR":0.000706,"MEAN_MOTION_DOT":0.00020683,"MEAN_MOTION_DDOT":0}]
